EUTELSAT 21B            
1 38992U 12062B   25236.96158310  .00000119  00000+0  00000+0 0  9992
2 38992   0.0695 355.1069 0002554 158.0961 188.0416  1.00269599 46850
EUTELSAT 70B            
1 39020U 12069A   25236.83026436 -.00000055  00000+0  00000+0 0  9991
2 39020   0.0651 354.6405 0003594 160.7523 187.3386  1.00271478 46534
EUTELSAT 117 WEST A     
1 39122U 13012A   25236.73794722  .00000000  00000+0  00000+0 0  9991
2 39122   0.0185 247.4665 0002908 277.0426 317.6094  1.00271085 45467
EUTELSAT 7B             
1 39163U 13022A   25236.92016925  .00000037  00000+0  00000+0 0  9990
2 39163   0.0746 328.4690 0001804  72.0071 271.2114  1.00272911 44989
EXPRESS-AT1             
1 39612U 14010A   25236.97010854  .00000067  00000+0  00000+0 0  9990
2 39612   0.0164 170.0403 0000616 268.4975 300.1902  1.00274498 41840
EXPRESS-AT2             
1 39613U 14010B   25235.21364205  .00000000  00000+0  00000+0 0  9996
2 39613   0.0222 135.9156 0000226 151.0496 261.5412  1.00267750 41516
EUTELSAT 3B             
1 39773U 14030A   25236.88826045  .00000009  00000+0  00000+0 0  9993
2 39773   0.0654 353.7816 0004150 162.0776 140.3950  1.00271386 41092
EUTELSAT 115 WEST B     
1 40425U 15010B   25236.65073398 -.00000037  00000+0  00000+0 0  9990
2 40425   0.0098 264.1366 0000089 130.6346  57.7479  1.00271252 38417
